FENGYUN 1C DEB          
1 35190U 99025DNW 17345.21362082  .00001482  00000-0  44345-3 0  9995
2 35190  98.7528 335.8132 0113336 109.3594 251.9887 14.40754950163663
